TIANZHOU-10             
1 69049U 26102A   26157.86582920  .00024497  00000+0  29302-3 0  9994
2 69049  41.4717  24.7959 0008946 356.7264   3.3515 15.60367779  4204
QIANFAN-127             
1 69073U 26104A   26159.18954110  .00000098  00000+0  40366-4 0  9999
2 69073  88.9862 342.6332 0004575 115.4690 244.6973 14.18385193  3818
QIANFAN-128             
1 69074U 26104B   26158.82748623  .00000088  00000+0  37589-4 0  9992
2 69074  88.9871 342.6873 0004486 124.5514 235.6097 14.15623305  3753
QIANFAN-129             
1 69075U 26104C   26159.14227543  .00000107  00000+0  42127-4 0  9998
2 69075  88.9858 342.6230 0004676 128.0802 232.0811 14.21761152  3818
QIANFAN-130             
1 69076U 26104D   26159.02537806  .00000101  00000+0  44240-4 0  9994
2 69076  88.9850 342.6528 0006001  86.9053 273.2821 14.15417010  3783
QIANFAN-131             
1 69077U 26104E   26158.92471475  .00000101  00000+0  42572-4 0  9998
2 69077  88.9802 342.6600 0006881 155.8912 204.2600 14.17480177  3772
QIANFAN-132             
1 69078U 26104F   26158.82453926  .00000093  00000+0  39929-4 0  9991
2 69078  88.9878 342.6876 0004708 122.9740 237.1901 14.16026908  3755
QIANFAN-133             
1 69079U 26104G   26159.01984134  .00000104  00000+0  45900-4 0  9993
2 69079  88.9886 342.6493 0004751 140.8317 219.3215 14.15623334  3785
QIANFAN-134             
1 69080U 26104H   26158.30774113  .00000095  00000+0  39438-4 0  9998
2 69080  88.9855 342.7358 0005396 129.4068 230.7599 14.17605872  3686
QIANFAN-135             
1 69081U 26104J   26157.66768678  .00000098  00000+0  39789-4 0  9998
2 69081  88.9865 342.8125 0004541 146.7367 213.4109 14.19141750  3593
QIANFAN-136             
1 69082U 26104K   26157.66347672  .00000098  00000+0  39680-4 0  9996
2 69082  88.9865 342.8116 0005147 139.4310 220.7264 14.19293228  3595
QIANFAN-137             
1 69083U 26104L   26159.14789080  .00000113  00000+0  42050-4 0  9998
2 69083  88.9862 342.6227 0005585 130.5679 229.6001 14.24907798  3812
QIANFAN-138             
1 69084U 26104M   26158.77927831  .00000106  00000+0  44386-4 0  9991
2 69084  88.9879 342.6803 0004699 130.0203 230.1399 14.18397443  3757
QIANFAN-139             
1 69085U 26104N   26158.91533492  .00000097  00000+0  40133-4 0  9999
2 69085  88.9776 342.6557 0007468 157.1940 202.9582 14.17969906  3776
QIANFAN-140             
1 69086U 26104P   26158.76938338  .00000106  00000+0  44085-4 0  9992
2 69086  88.9864 342.6771 0004337 129.4247 230.7326 14.18899227  3759
QIANFAN-141             
1 69087U 26104Q   26158.83530228  .00000100  00000+0  41089-4 0  9992
2 69087  88.9877 342.6740 0004117 131.2350 228.9195 14.19147504  3761
QIANFAN-142             
1 69088U 26104R   26158.90025337  .00000107  00000+0  44222-4 0  9990
2 69088  88.9819 342.6617 0007793 147.5776 212.5894 14.19232703  3778
QIANFAN-143             
1 69089U 26104S   26157.40811800  .00000130  00000+0  51147-4 0  9993
2 69089  88.9863 342.8289 0004611 129.0377 231.1226 14.23171036  3562
QIANFAN-144             
1 69090U 26104T   26157.55472065  .00000113  00000+0  44811-4 0  9998
2 69090  88.9875 342.8152 0003045 106.8846 253.2679 14.21930302  3586
ZHUQUE-2E R/B           
1 69095U 26105A   26158.16672046  .00187362 -72251-6  46037-3 0  9991
2 69095  88.9719 195.6329 0458929 336.7240  21.3785 15.14524366  3635
2026-106A               
1 69097U 26106A   26155.63137572  .00009052  00000+0  54389-3 0  9996
2 69097  97.5095 237.9435 0013466 203.5034 156.5582 15.11037132  3085
2026-106B               
1 69098U 26106B   26155.63675397  .00006796  00000+0  42602-3 0  9996
2 69098  97.5082 237.9319 0014266 199.5733 160.4950 15.09575067  3086
2026-106C               
1 69099U 26106C   26155.63084001  .00008876  00000+0  53278-3 0  9995
2 69099  97.5097 237.9445 0013554 204.3760 155.6830 15.11076088  3082
2026-106D               
1 69100U 26106D   26155.62912235  .00008260  00000+0  49447-3 0  9996
2 69100  97.5062 237.9411 0013122 207.0214 153.0334 15.11202473  3085
2026-106E               
1 69101U 26106E   26155.62529263  .00009128  00000+0  54175-3 0  9990
2 69101  97.5073 237.9468 0015124 208.9127 151.1267 15.11460406  3083
DRAGON CRS-34           
1 69103U 26107A   26158.90128672  .00006825  00000+0  12894-3 0  9999
2 69103  51.6338 346.0598 0006929 145.2520 214.8923 15.49658997570359
QIANFAN-145             
1 69104U 26108A   26159.08484980  .00000272  00000+0  13051-3 0  9994
2 69104  89.0119  23.2340 0015776 142.7928 217.4356 14.16077318  3057
QIANFAN-146             
1 69105U 26108B   26157.67590889 -.02099076  00000+0 -10762+1 0  9991
2 69105  89.0117  23.3746 0018711 145.5638 214.6768 14.19641486  2868
QIANFAN-147             
1 69106U 26108C   26159.14128485  .00000275  00000+0  12957-3 0  9995
2 69106  89.0118  23.2238 0015794 139.6809 220.5554 14.17034118  3065
