OBJECT_NAME,OBJECT_ID,EPOCH,MEAN_MOTION,ECCENTRICITY,INCLINATION,RA_OF_ASC_NODE,ARG_OF_PERICENTER,MEAN_ANOMALY,EPHEMERIS_TYPE,CLASSIFICATION_TYPE,NORAD_CAT_ID,ELEMENT_SET_NO,REV_AT_EPOCH,BSTAR,MEAN_MOTION_DOT,MEAN_MOTION_DDOT
TIANZHOU-10,2026-102A,2026-06-06T20:46:47.642880,15.60367779,.00089466,41.4717,24.7959,356.7264,3.3515,0,U,69049,999,420,.29301982E-3,.24497E-3,0
QIANFAN-127,2026-104A,2026-06-08T04:32:56.351040,14.18385193,.0004575,88.9862,342.6332,115.4690,244.6973,0,U,69073,999,381,.40366E-4,.98E-6,0
QIANFAN-128,2026-104B,2026-06-07T19:51:34.810272,14.15623305,.0004486,88.9871,342.6873,124.5514,235.6097,0,U,69074,999,375,.37589E-4,.88E-6,0
QIANFAN-129,2026-104C,2026-06-08T03:24:52.597152,14.21761152,.0004676,88.9858,342.6230,128.0802,232.0811,0,U,69075,999,381,.42127E-4,.107E-5,0
QIANFAN-130,2026-104D,2026-06-08T00:36:32.664384,14.15417010,.0006001,88.9850,342.6528,86.9053,273.2821,0,U,69076,999,378,.4424E-4,.101E-5,0
QIANFAN-131,2026-104E,2026-06-07T22:11:35.354400,14.17480177,.0006881,88.9802,342.6600,155.8912,204.2600,0,U,69077,999,377,.42572E-4,.101E-5,0
QIANFAN-132,2026-104F,2026-06-07T19:47:20.192064,14.16026908,.0004708,88.9878,342.6876,122.9740,237.1901,0,U,69078,999,375,.39929E-4,.93E-6,0
QIANFAN-133,2026-104G,2026-06-08T00:28:34.291776,14.15623334,.0004751,88.9886,342.6493,140.8317,219.3215,0,U,69079,999,378,.459E-4,.104E-5,0
QIANFAN-134,2026-104H,2026-06-07T07:23:08.833632,14.17605872,.0005396,88.9855,342.7358,129.4068,230.7599,0,U,69080,999,368,.39438E-4,.95E-6,0
QIANFAN-135,2026-104J,2026-06-06T16:01:28.137792,14.19141750,.0004541,88.9865,342.8125,146.7367,213.4109,0,U,69081,999,359,.39789E-4,.98E-6,0
QIANFAN-136,2026-104K,2026-06-06T15:55:24.388608,14.19293228,.0005147,88.9865,342.8116,139.4310,220.7264,0,U,69082,999,359,.3968E-4,.98E-6,0
QIANFAN-137,2026-104L,2026-06-08T03:32:57.765120,14.24907798,.0005585,88.9862,342.6227,130.5679,229.6001,0,U,69083,999,381,.4205E-4,.113E-5,0
QIANFAN-138,2026-104M,2026-06-07T18:42:09.645984,14.18397443,.0004699,88.9879,342.6803,130.0203,230.1399,0,U,69084,999,375,.44386E-4,.106E-5,0
QIANFAN-139,2026-104N,2026-06-07T21:58:04.937088,14.17969906,.0007468,88.9776,342.6557,157.1940,202.9582,0,U,69085,999,377,.40133E-4,.97E-6,0
QIANFAN-140,2026-104P,2026-06-07T18:27:54.724032,14.18899227,.0004337,88.9864,342.6771,129.4247,230.7326,0,U,69086,999,375,.44085E-4,.106E-5,0
QIANFAN-141,2026-104Q,2026-06-07T20:02:50.116992,14.19147504,.0004117,88.9877,342.6740,131.2350,228.9195,0,U,69087,999,376,.41089E-4,.1E-5,0
QIANFAN-142,2026-104R,2026-06-07T21:36:21.891168,14.19232703,.0007793,88.9819,342.6617,147.5776,212.5894,0,U,69088,999,377,.44222E-4,.107E-5,0
QIANFAN-143,2026-104S,2026-06-06T09:47:41.395200,14.23171036,.00046113,88.9863,342.8289,129.0377,231.1226,0,U,69089,999,356,.51147457E-4,.13E-5,0
QIANFAN-144,2026-104T,2026-06-06T13:18:47.864160,14.21930302,.0003045,88.9875,342.8152,106.8846,253.2679,0,U,69090,999,358,.44811E-4,.113E-5,0
ZHUQUE-2E R/B,2026-105A,2026-06-07T04:00:04.647744,15.14524366,.04589297,88.9719,195.6329,336.7240,21.3785,0,U,69095,999,363,.46037088E-3,.187362E-2,-.722515E-6
2026-106A,2026-106A,2026-06-04T15:09:10.862208,15.11037132,.0013466,97.5095,237.9435,203.5034,156.5582,0,U,69097,999,308,.543886E-3,.9052E-4,0
2026-106B,2026-106B,2026-06-04T15:16:55.543008,15.09575067,.00142668,97.5082,237.9319,199.5733,160.4950,0,U,69098,999,308,.42602016E-3,.6796E-4,0
2026-106C,2026-106C,2026-06-04T15:08:24.576864,15.11076088,.00135546,97.5097,237.9445,204.3760,155.6830,0,U,69099,999,308,.53277866E-3,.8876E-4,0
2026-106D,2026-106D,2026-06-04T15:05:56.171040,15.11202473,.00131226,97.5062,237.9411,207.0214,153.0334,0,U,69100,999,308,.49447297E-3,.826E-4,0
2026-106E,2026-106E,2026-06-04T15:00:25.283232,15.11460406,.0015124,97.5073,237.9468,208.9127,151.1267,0,U,69101,999,308,.54174936E-3,.9128E-4,0
DRAGON CRS-34,2026-107A,2026-06-07T21:37:51.172608,15.49658997,.0006929,51.6338,346.0598,145.2520,214.8923,0,U,69103,999,57035,.12894E-3,.6825E-4,0
QIANFAN-145,2026-108A,2026-06-08T02:02:11.022720,14.16077318,.0015776,89.0119,23.2340,142.7928,217.4356,0,U,69104,999,305,.13051E-3,.272E-5,0
QIANFAN-146,2026-108B,2026-06-06T16:13:18.528096,14.19641486,.0018711,89.0117,23.3746,145.5638,214.6768,0,U,69105,999,286,-.10762E+1,-.2099076E-1,0
QIANFAN-147,2026-108C,2026-06-08T03:23:27.011040,14.17034118,.0015794,89.0118,23.2238,139.6809,220.5554,0,U,69106,999,306,.12957E-3,.275E-5,0
